ALOS (DAICHI)           
1 28931U 06002A   26013.62927273  .00000975  00000+0  17247-3 0  9995
2 28931  98.1132 329.9015 0002136  92.1072 268.0378 14.69600389 65394
H-2A R/B                
1 28932U 06002B   26013.35792251  .00006269  00000+0  32501-3 0  9994
2 28932  98.2325 155.7093 0054549  70.0375 290.6719 15.15276311 86059
RESURS-DK 1             
1 29228U 06021A   26013.44765590  .00001935  00000+0  11743-3 0  9990
2 29228  69.9338  19.8807 0005926 231.6272 128.4362 15.12369205 79175
CZ-4B R/B               
1 29507U 06046C   26013.12052130  .00003984  00000+0  20637-3 0  9999
2 29507  97.5698  58.1746 0035292  99.7559 260.7662 15.16241139 51621
CZ-2C R/B               
1 31114U 07010B   26013.56308412  .00000079  00000+0  55067-4 0  9991
2 31114  98.3972 129.6127 0060147  94.5298 266.2753 14.20224264971895
COSMO-SKYMED 1          
1 31598U 07023A   26013.62811236  .00001895  00000+0  17403-3 0  9999
2 31598  97.8847 204.2431 0001327  75.4464 284.6904 14.96046711  6671
COSMOS 2428             
1 31792U 07029A   26013.24323075  .00000336  00000+0  20628-3 0  9990
2 31792  70.9395 319.7362 0005558 341.2087  18.8828 14.12908747956262
SL-16 R/B               
1 31793U 07029B   26013.50956617 -.00000230  00000+0 -94292-4 0  9998
2 31793  70.9766 288.3766 0002260 273.5844 258.9920 14.14824769957566
KORONAS-FOTON           
1 33504U 09003A   26013.62649474  .00007083  00000+0  16561-3 0  9990
2 33504  82.4317 333.0480 0011382   7.7643 352.3777 15.41888890937257
CZ-2C R/B               
1 37731U 11030B   26013.64062764  .00000883  00000+0  11813-3 0  9998
2 37731  97.8453 332.0509 0052959 167.9211   5.0494 14.81008386781948
H-2A R/B                
1 38341U 12025E   26013.64198675  .00002630  00000+0  24374-3 0  9990
2 38341  98.4636 336.3447 0046132 131.3356 229.1845 14.94674478739997
SHIJIAN-16 (SJ-16)      
1 39358U 13057A   26013.65319681  .00002848  00000+0  28194-3 0  9993
2 39358  74.9734 289.2651 0017816 246.2076 113.7245 14.92140045663296
