CCSDS_OMM_VERS = 2.0
CREATION_DATE  = 
ORIGINATOR     = 

OBJECT_NAME    = ALOS (DAICHI)
OBJECT_ID      = 2006-002A
CENTER_NAME    = EARTH
REF_FRAME      = TEME
TIME_SYSTEM    = UTC
MEAN_ELEMENT_THEORY = SGP/SGP4

EPOCH          = 2026-01-13T15:06:09.163872
MEAN_MOTION    = 14.69600389
ECCENTRICITY   = .00021365
INCLINATION    = 98.1132
RA_OF_ASC_NODE = 329.9015
ARG_OF_PERICENTER = 92.1072
MEAN_ANOMALY   = 268.0378

EPHEMERIS_TYPE = 0
CLASSIFICATION_TYPE = U
NORAD_CAT_ID   = 28931
ELEMENT_SET_NO = 999
REV_AT_EPOCH   = 6539
BSTAR          = .17246751E-3
MEAN_MOTION_DOT = .975E-5
MEAN_MOTION_DDOT = 0

CCSDS_OMM_VERS = 2.0
CREATION_DATE  = 
ORIGINATOR     = 

OBJECT_NAME    = H-2A R/B
OBJECT_ID      = 2006-002B
CENTER_NAME    = EARTH
REF_FRAME      = TEME
TIME_SYSTEM    = UTC
MEAN_ELEMENT_THEORY = SGP/SGP4

EPOCH          = 2026-01-13T08:35:24.504864
MEAN_MOTION    = 15.15276311
ECCENTRICITY   = .00545491
INCLINATION    = 98.2325
RA_OF_ASC_NODE = 155.7093
ARG_OF_PERICENTER = 70.0375
MEAN_ANOMALY   = 290.6719

EPHEMERIS_TYPE = 0
CLASSIFICATION_TYPE = U
NORAD_CAT_ID   = 28932
ELEMENT_SET_NO = 999
REV_AT_EPOCH   = 8605
BSTAR          = .32501251E-3
MEAN_MOTION_DOT = .6269E-4
MEAN_MOTION_DDOT = 0

CCSDS_OMM_VERS = 2.0
CREATION_DATE  = 
ORIGINATOR     = 

OBJECT_NAME    = RESURS-DK 1
OBJECT_ID      = 2006-021A
CENTER_NAME    = EARTH
REF_FRAME      = TEME
TIME_SYSTEM    = UTC
MEAN_ELEMENT_THEORY = SGP/SGP4

EPOCH          = 2026-01-13T10:44:37.469760
MEAN_MOTION    = 15.12369205
ECCENTRICITY   = .00059269
INCLINATION    = 69.9338
RA_OF_ASC_NODE = 19.8807
ARG_OF_PERICENTER = 231.6272
MEAN_ANOMALY   = 128.4362

EPHEMERIS_TYPE = 0
CLASSIFICATION_TYPE = U
NORAD_CAT_ID   = 29228
ELEMENT_SET_NO = 999
REV_AT_EPOCH   = 7917
BSTAR          = .1174288E-3
MEAN_MOTION_DOT = .1935E-4
MEAN_MOTION_DDOT = 0

CCSDS_OMM_VERS = 2.0
CREATION_DATE  = 
ORIGINATOR     = 

OBJECT_NAME    = CZ-4B R/B
OBJECT_ID      = 2006-046C
CENTER_NAME    = EARTH
REF_FRAME      = TEME
TIME_SYSTEM    = UTC
MEAN_ELEMENT_THEORY = SGP/SGP4

EPOCH          = 2026-01-13T02:53:33.040320
MEAN_MOTION    = 15.16241139
ECCENTRICITY   = .00352928
INCLINATION    = 97.5698
RA_OF_ASC_NODE = 58.1746
ARG_OF_PERICENTER = 99.7559
MEAN_ANOMALY   = 260.7662

EPHEMERIS_TYPE = 0
CLASSIFICATION_TYPE = U
NORAD_CAT_ID   = 29507
ELEMENT_SET_NO = 999
REV_AT_EPOCH   = 5162
BSTAR          = .20637464E-3
MEAN_MOTION_DOT = .3984E-4
MEAN_MOTION_DDOT = 0

CCSDS_OMM_VERS = 2.0
CREATION_DATE  = 
ORIGINATOR     = 

OBJECT_NAME    = CZ-2C R/B
OBJECT_ID      = 2007-010B
CENTER_NAME    = EARTH
REF_FRAME      = TEME
TIME_SYSTEM    = UTC
MEAN_ELEMENT_THEORY = SGP/SGP4

EPOCH          = 2026-01-13T13:30:50.467968
MEAN_MOTION    = 14.20224264
ECCENTRICITY   = .00601471
INCLINATION    = 98.3972
RA_OF_ASC_NODE = 129.6127
ARG_OF_PERICENTER = 94.5298
MEAN_ANOMALY   = 266.2753

EPHEMERIS_TYPE = 0
CLASSIFICATION_TYPE = U
NORAD_CAT_ID   = 31114
ELEMENT_SET_NO = 999
REV_AT_EPOCH   = 97189
BSTAR          = .55066523E-4
MEAN_MOTION_DOT = .79E-6
MEAN_MOTION_DDOT = 0

CCSDS_OMM_VERS = 2.0
CREATION_DATE  = 
ORIGINATOR     = 

OBJECT_NAME    = COSMO-SKYMED 1
OBJECT_ID      = 2007-023A
CENTER_NAME    = EARTH
REF_FRAME      = TEME
TIME_SYSTEM    = UTC
MEAN_ELEMENT_THEORY = SGP/SGP4

EPOCH          = 2026-01-13T15:04:28.907904
MEAN_MOTION    = 14.96046711
ECCENTRICITY   = .00013278
INCLINATION    = 97.8847
RA_OF_ASC_NODE = 204.2431
ARG_OF_PERICENTER = 75.4464
MEAN_ANOMALY   = 284.6904

EPHEMERIS_TYPE = 0
CLASSIFICATION_TYPE = U
NORAD_CAT_ID   = 31598
ELEMENT_SET_NO = 999
REV_AT_EPOCH   = 667
BSTAR          = .17402545E-3
MEAN_MOTION_DOT = .1895E-4
MEAN_MOTION_DDOT = 0

CCSDS_OMM_VERS = 2.0
CREATION_DATE  = 
ORIGINATOR     = 

OBJECT_NAME    = COSMOS 2428
OBJECT_ID      = 2007-029A
CENTER_NAME    = EARTH
REF_FRAME      = TEME
TIME_SYSTEM    = UTC
MEAN_ELEMENT_THEORY = SGP/SGP4

EPOCH          = 2026-01-13T05:50:15.136800
MEAN_MOTION    = 14.12908747
ECCENTRICITY   = .00055586
INCLINATION    = 70.9395
RA_OF_ASC_NODE = 319.7362
ARG_OF_PERICENTER = 341.2087
MEAN_ANOMALY   = 18.8828

EPHEMERIS_TYPE = 0
CLASSIFICATION_TYPE = U
NORAD_CAT_ID   = 31792
ELEMENT_SET_NO = 999
REV_AT_EPOCH   = 95626
BSTAR          = .20627931E-3
MEAN_MOTION_DOT = .336E-5
MEAN_MOTION_DDOT = 0

CCSDS_OMM_VERS = 2.0
CREATION_DATE  = 
ORIGINATOR     = 

OBJECT_NAME    = SL-16 R/B
OBJECT_ID      = 2007-029B
CENTER_NAME    = EARTH
REF_FRAME      = TEME
TIME_SYSTEM    = UTC
MEAN_ELEMENT_THEORY = SGP/SGP4

EPOCH          = 2026-01-13T12:13:46.517088
MEAN_MOTION    = 14.14824769
ECCENTRICITY   = .000226
INCLINATION    = 70.9766
RA_OF_ASC_NODE = 288.3766
ARG_OF_PERICENTER = 273.5844
MEAN_ANOMALY   = 258.9920

EPHEMERIS_TYPE = 0
CLASSIFICATION_TYPE = U
NORAD_CAT_ID   = 31793
ELEMENT_SET_NO = 999
REV_AT_EPOCH   = 95756
BSTAR          = -.94292397E-4
MEAN_MOTION_DOT = -.23E-5
MEAN_MOTION_DDOT = 0

CCSDS_OMM_VERS = 2.0
CREATION_DATE  = 
ORIGINATOR     = 

OBJECT_NAME    = KORONAS-FOTON
OBJECT_ID      = 2009-003A
CENTER_NAME    = EARTH
REF_FRAME      = TEME
TIME_SYSTEM    = UTC
MEAN_ELEMENT_THEORY = SGP/SGP4

EPOCH          = 2026-01-13T15:02:09.145536
MEAN_MOTION    = 15.41888890
ECCENTRICITY   = .00113829
INCLINATION    = 82.4317
RA_OF_ASC_NODE = 333.0480
ARG_OF_PERICENTER = 7.7643
MEAN_ANOMALY   = 352.3777

EPHEMERIS_TYPE = 0
CLASSIFICATION_TYPE = U
NORAD_CAT_ID   = 33504
ELEMENT_SET_NO = 999
REV_AT_EPOCH   = 93725
BSTAR          = .16560732E-3
MEAN_MOTION_DOT = .7083E-4
MEAN_MOTION_DDOT = 0

CCSDS_OMM_VERS = 2.0
CREATION_DATE  = 
ORIGINATOR     = 

OBJECT_NAME    = CZ-2C R/B
OBJECT_ID      = 2011-030B
CENTER_NAME    = EARTH
REF_FRAME      = TEME
TIME_SYSTEM    = UTC
MEAN_ELEMENT_THEORY = SGP/SGP4

EPOCH          = 2026-01-13T15:22:30.228096
MEAN_MOTION    = 14.81008386
ECCENTRICITY   = .00529598
INCLINATION    = 97.8453
RA_OF_ASC_NODE = 332.0509
ARG_OF_PERICENTER = 167.9211
MEAN_ANOMALY   = 5.0494

EPHEMERIS_TYPE = 0
CLASSIFICATION_TYPE = U
NORAD_CAT_ID   = 37731
ELEMENT_SET_NO = 999
REV_AT_EPOCH   = 78194
BSTAR          = .11813105E-3
MEAN_MOTION_DOT = .883E-5
MEAN_MOTION_DDOT = 0

CCSDS_OMM_VERS = 2.0
CREATION_DATE  = 
ORIGINATOR     = 

OBJECT_NAME    = H-2A R/B
OBJECT_ID      = 2012-025E
CENTER_NAME    = EARTH
REF_FRAME      = TEME
TIME_SYSTEM    = UTC
MEAN_ELEMENT_THEORY = SGP/SGP4

EPOCH          = 2026-01-13T15:24:27.655200
MEAN_MOTION    = 14.94674478
ECCENTRICITY   = .00461325
INCLINATION    = 98.4636
RA_OF_ASC_NODE = 336.3447
ARG_OF_PERICENTER = 131.3356
MEAN_ANOMALY   = 229.1845

EPHEMERIS_TYPE = 0
CLASSIFICATION_TYPE = U
NORAD_CAT_ID   = 38341
ELEMENT_SET_NO = 999
REV_AT_EPOCH   = 73999
BSTAR          = .24374012E-3
MEAN_MOTION_DOT = .263E-4
MEAN_MOTION_DDOT = 0

CCSDS_OMM_VERS = 2.0
CREATION_DATE  = 
ORIGINATOR     = 

OBJECT_NAME    = SHIJIAN-16 (SJ-16)
OBJECT_ID      = 2013-057A
CENTER_NAME    = EARTH
REF_FRAME      = TEME
TIME_SYSTEM    = UTC
MEAN_ELEMENT_THEORY = SGP/SGP4

EPOCH          = 2026-01-13T15:40:36.204384
MEAN_MOTION    = 14.92140045
ECCENTRICITY   = .0017816
INCLINATION    = 74.9734
RA_OF_ASC_NODE = 289.2651
ARG_OF_PERICENTER = 246.2076
MEAN_ANOMALY   = 113.7245

EPHEMERIS_TYPE = 0
CLASSIFICATION_TYPE = U
NORAD_CAT_ID   = 39358
ELEMENT_SET_NO = 999
REV_AT_EPOCH   = 66329
BSTAR          = .28194445E-3
MEAN_MOTION_DOT = .2848E-4
MEAN_MOTION_DDOT = 0

